0 THOR AGENA B DEB
1 00510U 62049C   13282.83541008  .00000033  00000-0  27386-4 0  3217
2 00510 080.5144 209.5400 0015438 187.0382 227.7123 13.69532661548777
0 THOR AGENA B DEB
1 00510U 62049C   13287.52404175  .00000080  00000-0  81549-4 0  3236
2 00510 080.5149 204.9247 0015598 175.0051 304.0751 13.69532751549415
0 THOR AGENA B DEB
1 00510U 62049C   13290.23414182  .00000101  00000-0  10571-3 0  3248
2 00510 080.5147 202.2575 0015674 168.2390 345.4949 13.69533153549788
0 THOR AGENA B DEB
1 00510U 62049C   13292.49200392  .00000085  00000-0  86974-4 0  3257
2 00510 080.5144 200.0350 0015762 162.4305 317.4505 13.69533578550096
0 THOR AGENA B DEB
1 00510U 62049C   13294.73835890  .00000064  00000-0  63359-4 0  3263
2 00510 080.5142 197.8237 0015839 156.7998 232.5268 13.69534155550400
